[{"OBJECT_NAME":"KOMPSAT-3A","OBJECT_ID":"2015-014A","EPOCH":"2026-03-09T22:01:00.893280","MEAN_MOTION":15.4874093,"ECCENTRICITY":0.00634032,"INCLINATION":97.6881,"RA_OF_ASC_NODE":53.4301,"ARG_OF_PERICENTER":176.675,"MEAN_ANOMALY":183.4934,"EPHEMERIS_TYPE":0,"CLASSIFICATION_TYPE":"U","NORAD_CAT_ID":40536,"ELEMENT_SET_NO":999,"REV_AT_EPOCH":60642,"BSTAR":0.0004887239,"MEAN_MOTION_DOT":0.00028374,"MEAN_MOTION_DDOT":0},{"OBJECT_NAME":"STARLINK-1635","OBJECT_ID":"2020-057BH","EPOCH":"2026-03-10T00:00:02.999808","MEAN_MOTION":15.60509087,"ECCENTRICITY":0.00033523,"INCLINATION":53.0441,"RA_OF_ASC_NODE":256.1073,"ARG_OF_PERICENTER":0.6018,"MEAN_ANOMALY":192.2172,"EPHEMERIS_TYPE":0,"CLASSIFICATION_TYPE":"U","NORAD_CAT_ID":46172,"ELEMENT_SET_NO":999,"REV_AT_EPOCH":593,"BSTAR":0.0025741102,"MEAN_MOTION_DOT":0.0022161,"MEAN_MOTION_DDOT":0}]
